STARLINK-2667           
1 48663U 21044AB  24317.70341721  .00001180  00000+0  98116-4 0  9998
2 48663  53.0523 115.3369 0001333 102.9000 257.2137 15.06402771191200
STARLINK-2709           
1 48664U 21044AC  24317.76608662  .00006077  00000+0  42641-3 0  9996
2 48664  53.0522 115.0564 0001428  95.8265 264.2886 15.06408636191218
STARLINK-2666           
1 48666U 21044AE  24317.72559508  .00007214  00000+0  50249-3 0  9995
2 48666  53.0523 115.7082 0001104  90.2931 269.8184 15.06413691192099
STARLINK-2735           
1 48667U 21044AF  24317.96143826  .00010369  00000+0  71398-3 0  9997
2 48667  53.0521 114.1797 0001235  79.0884 281.0244 15.06399400191241
STARLINK-2738           
1 48668U 21044AG  24318.15679099  .00001439  00000+0  11552-3 0  9990
2 48668  53.0525 113.3052 0001104 104.4849 255.6263 15.06391284192173
STARLINK-2707           
1 48669U 21044AH  24317.75502592  .00011366  00000+0  78079-3 0  9996
2 48669  53.0523 115.1073 0001217  69.3024 290.8095 15.06395102191204
STARLINK-2763           
1 48670U 21044AJ  24317.75133542  .00010020  00000+0  69060-3 0  9999
2 48670  53.0518 115.1221 0001147  96.4686 263.6433 15.06401118191201
STARLINK-2745           
1 48671U 21044AK  24317.71083087  .00011147  00000+0  76600-3 0  9993
2 48671  53.0529 115.6107 0001237  97.1578 262.9551 15.06402885191193
STARLINK-2705           
1 48672U 21044AL  24318.14204691  .00006557  00000+0  45872-3 0  9994
2 48672  53.0530 113.3659 0001167 108.0689 252.0427 15.06395674192167
STARLINK-2711           
1 48673U 21044AM  24318.13836358  .00004401  00000+0  31410-3 0  9994
2 48673  53.0521 113.3864 0001175  72.5271 287.5846 15.06408406192163
STARLINK-2712           
1 48674U 21044AN  24317.74765909  .00002574  00000+0  19165-3 0  9996
2 48674  53.0527 115.2524 0000889 109.9233 250.1852 15.06398956191203
STARLINK-2737           
1 48675U 21044AP  24318.13101149  .00010254  00000+0  70640-3 0  9990
2 48675  53.0528 113.4195 0001505  70.8443 289.2709 15.06392275192106
STARLINK-2746           
1 48676U 21044AQ  24317.72921795  .00004126  00000+0  29573-3 0  9992
2 48676  53.0532 115.2236 0001329  98.0620 262.0519 15.06401982191205
STARLINK-2615           
1 48678U 21044AS  24317.72184889  .00010338  00000+0  71179-3 0  9990
2 48678  53.0531 115.2557 0001233  92.6674 267.4457 15.06404901191209
STARLINK-2648           
1 48679U 21044AT  24317.71817281  .00010987  00000+0  75544-3 0  9999
2 48679  53.0523 115.2708 0001605  74.5849 285.5317 15.06395160191207
STARLINK-2649           
1 48680U 21044AU  24317.71447455  .00011535  00000+0  79200-3 0  9996
2 48680  53.0522 115.2883 0001166  96.7995 263.3127 15.06400210191208
STARLINK-2725           
1 48681U 21044AV  24317.64724098 -.00002594  00000+0 -15532-3 0  9995
2 48681  53.0522  85.8279 0001821  91.4812 268.6386 15.06390668191602
STARLINK-2743           
1 48682U 21044AW  24318.04253761  .00024220  00000+0  16361-2 0  9993
2 48682  53.0552  73.9769 0002348  83.2343 276.8913 15.06472018192643
STARLINK-2756           
1 48683U 21044AX  24318.06464986  .00003920  00000+0  28188-3 0  9994
2 48683  53.0517  73.7248 0001422  88.4622 271.6530 15.06400358192651
STARLINK-2741           
1 48684U 21044AY  24317.68918278  .00007953  00000+0  55201-3 0  9996
2 48684  53.0531  90.7573 0001447  82.2380 277.8774 15.06411864191547
STARLINK-2751           
1 48685U 21044AZ  24317.63708057  .00001971  00000+0  15120-3 0  9994
2 48685  53.0566  75.6816 0001385  86.9025 273.2122 15.06400683191753
STARLINK-2629           
1 48686U 21044BA  24317.63111663  .00011647  00000+0  79899-3 0  9990
2 48686  53.0536  80.9422 0001645  89.2550 270.8628 15.06423553192577
STARLINK-2627           
1 48687U 21044BB  24318.00427949  .00001474  00000+0  11782-3 0  9994
2 48687  53.0536  68.9857 0001666  68.0116 292.1050 15.06405163192711
STARLINK-2742           
1 48688U 21044BC  24317.60988231  .00003063  00000+0  22438-3 0  9992
2 48688  53.0533  70.7603 0001318  92.1280 267.9860 15.06410927192659
STARLINK-2617           
1 48689U 21044BD  24317.61497500  .00013685  00000+0  93604-3 0  9992
2 48689  53.0529  75.7052 0001588  73.0980 287.0183 15.06391059192589
STARLINK-2740           
1 48690U 21044BE  24318.08583582  .00003878  00000+0  27902-3 0  9993
2 48690  53.0538  83.6234 0001408  75.3933 284.7212 15.06408784192575
STARLINK-2750           
1 48691U 21044BF  24318.05865913  .00002397  00000+0  17975-3 0  9996
2 48691  53.0537  78.7437 0001553  89.3970 270.7197 15.06400423192582
STARLINK-2752           
1 48692U 21044BG  24318.04392277  .00002321  00000+0  17461-3 0  9991
2 48692  53.0553  78.9305 0001340  80.9959 279.1181 15.06408124192587
STARLINK-2618           
1 48693U 21044BH  24317.65363557  .00011251  00000+0  77269-3 0  9991
2 48693  53.0540  85.5611 0001335  90.1545 269.9597 15.06415808191614
STARLINK-2748           
1 48694U 21044BJ  24317.68819186  .00006480  00000+0  45346-3 0  9998
2 48694  53.0512  90.3979 0001197 107.1512 252.9608 15.06405470191545
STARLINK-2616           
1 48695U 21044BK  24317.64489793 -.00001935  00000+0 -11093-3 0  9996
2 48695  53.0545  90.6478 0001390  87.8135 272.3013 15.06427784192447
STARLINK-2753           
1 48696U 21044BL  24317.70159198  .00006748  00000+0  47164-3 0  9990
2 48696  53.0534  95.3951 0001504  79.5566 280.5592 15.06389435191483
ONEWEB-0211             
1 48767U 21045A   24317.86490808  .00000092  00000+0  21129-3 0  9992
2 48767  87.9106  14.8955 0001890  92.4455 267.6892 13.15552269167984
ONEWEB-0223             
1 48768U 21045B   24317.88710009 -.00000090  00000+0 -27399-3 0  9998
2 48768  87.9104  14.9032 0002086  84.1338 276.0030 13.15550905167978
ONEWEB-0230             
1 48769U 21045C   24317.85858236  .00000181  00000+0  44805-3 0  9991
2 48769  87.9109  14.9777 0001970  98.5492 261.5862 13.15550752168233
ONEWEB-0237             
1 48770U 21045D   24317.92354844  .00000169  00000+0  41365-3 0  9991
2 48770  87.9110  14.9049 0002000  87.5251 272.6108 13.15550273167968
ONEWEB-0235             
1 48771U 21045E   24317.89819206  .00000029  00000+0  43851-4 0  9994
2 48771  87.9099  14.9080 0002227  82.8106 277.3278 13.15550589167957
ONEWEB-0242             
1 48772U 21045F   24318.12001526 -.00002214  00000+0 -59147-2 0  9993
2 48772  87.9104  14.8502 0002248  93.0459 267.0928 13.15556304169154
ONEWEB-0241             
1 48773U 21045G   24317.87917981 -.00000071  00000+0 -22222-3 0  9990
2 48773  87.9113  14.9596 0001734  85.6457 274.4871 13.15550798167904
ONEWEB-0243             
1 48774U 21045H   24317.91089526 -.00001923  00000+0 -51439-2 0  9999
2 48774  87.9099  14.9159 0002197  79.5996 280.5382 13.15533916167938
ONEWEB-0222             
1 48775U 21045J   24317.89422528 -.00000040  00000+0 -14122-3 0  9998
2 48775  87.9100  14.9047 0001824  91.0399 269.0940 13.15549908167974
ONEWEB-0244             
1 48776U 21045K   24317.92037578  .00000139  00000+0  33462-3 0  9995
2 48776  87.9102  14.8799 0002090  97.0467 263.0901 13.15549860168540
ONEWEB-0247             
1 48777U 21045L   24317.91721112  .00000194  00000+0  48183-3 0  9996
2 48777  87.9107  14.9329 0002576  79.6996 280.4424 13.15550023167981
ONEWEB-0245             
1 48778U 21045M   24317.91246228  .00000113  00000+0  26653-3 0  9996
2 48778  87.9101  14.9140 0001665  91.8807 268.2514 13.15547961167950
ONEWEB-0229             
1 48779U 21045N   24317.90770170  .00000191  00000+0  47279-3 0  9997
2 48779  87.9102  14.9106 0001985  95.8449 264.2907 13.15550818167985
ONEWEB-0228             
1 48780U 21045P   24317.94017681  .00000098  00000+0  22645-3 0  9990
2 48780  87.9102  14.8838 0001890  94.6163 265.5183 13.15549087167901
ONEWEB-0232             
1 48781U 21045Q   24317.91562726  .00000175  00000+0  43087-3 0  9992
2 48781  87.9096  14.8957 0001856  96.7892 263.3449 13.15549950168226
ONEWEB-0231             
1 48782U 21045R   24318.12161100  .00000025  00000+0  31372-4 0  9997
2 48782  87.9111  14.9071 0001983  90.9041 269.2316 13.15551060169084
ONEWEB-0234             
1 48783U 21045S   24317.91324285  .00000208  00000+0  51962-3 0  9998
2 48783  87.9104  14.8960 0000779 138.6214 221.4975 13.15550382168050
ONEWEB-0238             
1 48784U 21045T   24317.86729557  .00000006  00000+0 -18403-4 0  9995
2 48784  87.9105  14.9221 0001695 101.9330 258.1990 13.15550466167947
ONEWEB-0240             
1 48785U 21045U   24317.87679823 -.00000058  00000+0 -18696-3 0  9998
2 48785  87.9101  14.8868 0001765  84.1436 275.9895 13.15552882167975
ONEWEB-0246             
1 48786U 21045V   24318.17548653  .00000128  00000+0  30559-3 0  9997
2 48786  87.9104  14.8344 0001993  95.3363 264.7995 13.15550763169003
ONEWEB-0210             
1 48787U 21045W   24317.92196432  .00000188  00000+0  46621-3 0  9997
2 48787  87.9103  14.8878 0002578  87.6633 272.4792 13.15550524167890
ONEWEB-0214             
1 48788U 21045X   24317.93146613  .00000150  00000+0  36482-3 0  9998
2 48788  87.9106  14.8749 0002432  93.7053 266.4356 13.15550781167865
ONEWEB-0221             
1 48789U 21045Y   24317.86175029  .00000131  00000+0  31447-3 0  9999
2 48789  87.9109  14.9107 0001784  91.1859 268.9476 13.15550548167943
ONEWEB-0213             
1 48790U 21045Z   24317.92670875  .00000159  00000+0  38728-3 0  9996
2 48790  87.9106  14.9088 0001966  88.9221 271.2134 13.15551449168017
ONEWEB-0212             
1 48791U 21045AA  24317.90373872  .00000048  00000+0  94435-4 0  9997
2 48791  87.9106  14.8990 0001779  98.5873 261.5459 13.15550902168005
ONEWEB-0227             
1 48792U 21045AB  24317.67477574  .00000007  00000+0 -15372-4 0  9995
2 48792  87.9111  14.9587 0001807  92.7618 267.3719 13.15550485167929
ONEWEB-0226             
1 48793U 21045AC  24317.89661468 -.00000061  00000+0 -19739-3 0  9998
2 48793  87.9103  14.9201 0002175  89.4670 270.6709 13.15547982167928
